[{"OBJECT_NAME":"RANGE-A","OBJECT_ID":"2018-099R","EPOCH":"2026-03-09T16:56:29.908608","MEAN_MOTION":15.1245864,"ECCENTRICITY":0.00096737,"INCLINATION":97.4107,"RA_OF_ASC_NODE":114.1927,"ARG_OF_PERICENTER":340.4473,"MEAN_ANOMALY":19.6386,"EPHEMERIS_TYPE":0,"CLASSIFICATION_TYPE":"U","NORAD_CAT_ID":43773,"ELEMENT_SET_NO":999,"REV_AT_EPOCH":39745,"BSTAR":0.00032165687,"MEAN_MOTION_DOT":5.536e-5,"MEAN_MOTION_DDOT":0},{"OBJECT_NAME":"STARLINK-3683","OBJECT_ID":"2022-083AM","EPOCH":"2026-03-09T12:08:24.815328","MEAN_MOTION":15.08842316,"ECCENTRICITY":0.00014753,"INCLINATION":53.2177,"RA_OF_ASC_NODE":149.9345,"ARG_OF_PERICENTER":118.9772,"MEAN_ANOMALY":241.1369,"EPHEMERIS_TYPE":0,"CLASSIFICATION_TYPE":"U","NORAD_CAT_ID":53167,"ELEMENT_SET_NO":999,"REV_AT_EPOCH":20153,"BSTAR":-7.3409656e-5,"MEAN_MOTION_DOT":-1.456e-5,"MEAN_MOTION_DDOT":0}]
