RANGE-A                 
1 43773U 18099R   26068.70590171  .00005536  00000+0  32166-3 0  9992
2 43773  97.4107 114.1927 0009674 340.4473  19.6386 15.12458640397457
STARLINK-3683           
1 53167U 22083AM  26068.50584277 -.00001456  00000+0 -73410-4 0  9993
2 53167  53.2177 149.9345 0001475 118.9772 241.1369 15.08842316201531
